[{"OBJECT_NAME":"STARLINK-32275","OBJECT_ID":"2024-138F","EPOCH":"2026-03-09T22:13:14.364480","MEAN_MOTION":15.3018593,"ECCENTRICITY":0.00012512,"INCLINATION":53.1615,"RA_OF_ASC_NODE":308.5162,"ARG_OF_PERICENTER":85.8575,"MEAN_ANOMALY":274.2569,"EPHEMERIS_TYPE":0,"CLASSIFICATION_TYPE":"U","NORAD_CAT_ID":60360,"ELEMENT_SET_NO":999,"REV_AT_EPOCH":9066,"BSTAR":2.5723003e-5,"MEAN_MOTION_DOT":4.02e-6,"MEAN_MOTION_DDOT":0},{"OBJECT_NAME":"PSLV R\/B","OBJECT_ID":"2020-081L","EPOCH":"2026-03-09T11:07:47.822880","MEAN_MOTION":15.35733047,"ECCENTRICITY":0.00238531,"INCLINATION":36.845,"RA_OF_ASC_NODE":143.8276,"ARG_OF_PERICENTER":144.7418,"MEAN_ANOMALY":215.4916,"EPHEMERIS_TYPE":0,"CLASSIFICATION_TYPE":"U","NORAD_CAT_ID":46915,"ELEMENT_SET_NO":999,"REV_AT_EPOCH":29573,"BSTAR":0.00039539958,"MEAN_MOTION_DOT":0.00014147,"MEAN_MOTION_DDOT":0}]
